     2              NAVIGATION DATA                         RINEX VERSION / TYPE
CCRINEXN V1.6.0 UX  CDDIS               21-OCT-16 15:33     PGM / RUN BY / DATE 
IGS BROADCAST EPHEMERIS FILE                                COMMENT             
    0.1211D-07  0.0000D+00 -0.1192D-06  0.0000D+00          ION ALPHA           
    0.9421D+05  0.0000D+00 -0.1966D+06  0.0000D+00          ION BETA            
    0.186264514923D-08 0.355271367880D-14   503808     1919 DELTA-UTC: A0,A1,T,W
    17                                                      LEAP SECONDS        
                                                            END OF HEADER       
 1 16 10 20  0  0  0.0 0.377488322556D-04 0.125055521494D-11 0.000000000000D+00
    0.640000000000D+02 0.154687500000D+02 0.446804325479D-08 0.868874457526D+00
    0.713393092155D-06 0.596453994513D-02 0.912137329578D-05 0.515369906044D+04
    0.345600000000D+06-0.124797224999D-06 0.149184985609D+01 0.115483999252D-06
    0.965136033927D+00 0.207000000000D+03 0.563320580723D+00-0.800354766560D-08
    0.503949562951D-09 0.100000000000D+01 0.191900000000D+04 0.000000000000D+00
    0.200000000000D+01 0.000000000000D+00 0.512227416039D-08 0.640000000000D+02
    0.345570000000D+06 0.400000000000D+01 0.000000000000D+00 0.000000000000D+00
 2 16 10 20  0  0  0.0 0.537535175681D-03-0.522959453519D-11 0.000000000000D+00
    0.660000000000D+02-0.662500000000D+01 0.491520468771D-08 0.133964075666D+01
   -0.311061739922D-06 0.160120765213D-01 0.971555709839D-05 0.515365867043D+04
    0.345600000000D+06-0.340864062309D-06 0.144316552383D+01 0.391155481338D-07
    0.943981880086D+00 0.183875000000D+03-0.207591186051D+01-0.840535019364D-08
    0.540379629932D-09 0.100000000000D+01 0.191900000000D+04 0.000000000000D+00
    0.200000000000D+01 0.000000000000D+00-0.204890966415D-07 0.660000000000D+02
    0.345600000000D+06 0.000000000000D+00 0.000000000000D+00 0.000000000000D+00
 3 16 10 20  0  0  0.0-0.934479758143D-04-0.204636307899D-11 0.000000000000D+00
    0.940000000000D+02-0.181875000000D+02 0.503270980445D-08-0.369858690945D+00
   -0.862404704094D-06 0.272747594863D-03 0.624544918537D-05 0.515358931541D+04
    0.345600000000D+06 0.745058059692D-08 0.253398590726D+01-0.372529029846D-08
    0.959527331822D+00 0.261718750000D+03 0.687355128746D+00-0.823748624867D-08
   -0.130719726710D-09 0.100000000000D+01 0.191900000000D+04 0.000000000000D+00
    0.200000000000D+01 0.000000000000D+00 0.139698386192D-08 0.940000000000D+02
    0.345600000000D+06 0.000000000000D+00 0.000000000000D+00 0.000000000000D+00
 4 16 10 20  0  0  0.0 0.937469303608D-05 0.341060513165D-11 0.000000000000D+00
    0.880000000000D+02 0.575000000000D+02 0.427982112887D-08-0.184244818161D+01
    0.309571623802D-05 0.838287011720D-02 0.122040510178D-04 0.515360341835D+04
    0.345600000000D+06-0.178813934326D-06-0.259004500412D+01 0.782310962677D-07
    0.966507401130D+00 0.149437500000D+03-0.993734471704D+00-0.779818196844D-08
   -0.318227541169D-09 0.100000000000D+01 0.191900000000D+04 0.000000000000D+00
    0.400000000000D+01 0.630000000000D+02-0.372529029846D-08 0.880000000000D+02
    0.345600000000D+06 0.000000000000D+00 0.000000000000D+00 0.000000000000D+00
 5 16 10 20  0  0  0.0-0.834590755403D-04 0.250111042988D-11 0.000000000000D+00
    0.930000000000D+02-0.162187500000D+02 0.530807824562D-08-0.247564590605D+01
   -0.107847154141D-05 0.483204529155D-02 0.642798841000D-05 0.515360902214D+04
    0.345600000000D+06 0.931322574616D-08 0.252013770821D+01-0.949949026108D-07
    0.946539060888D+00 0.249843750000D+03 0.533780402599D+00-0.833499004293D-08
   -0.575023952056D-10 0.100000000000D+01 0.191900000000D+04 0.000000000000D+00
    0.200000000000D+01 0.000000000000D+00-0.107102096081D-07 0.930000000000D+02
    0.340188000000D+06 0.400000000000D+01 0.000000000000D+00 0.000000000000D+00
 6 16 10 20  0  0  0.0 0.261815264821D-03 0.500222085975D-11 0.000000000000D+00
    0.750000000000D+02 0.553125000000D+01 0.441696990094D-08 0.147786876995D+01
    0.426545739174D-06 0.202720402740D-03 0.946596264839D-05 0.515378479958D+04
    0.345600000000D+06-0.186264514923D-08 0.148344719697D+01 0.149011611938D-07
    0.964944802739D+00 0.195125000000D+03-0.169484582877D+01-0.796390331459D-08
    0.635740793342D-09 0.100000000000D+01 0.191900000000D+04 0.000000000000D+00
    0.200000000000D+01 0.000000000000D+00 0.419095158577D-08 0.750000000000D+02
    0.345600000000D+06 0.000000000000D+00 0.000000000000D+00 0.000000000000D+00
 7 16 10 20  0  0  0.0 0.418038107455D-03-0.318323145621D-11 0.000000000000D+00
    0.350000000000D+02 0.115968750000D+03 0.459269111630D-08 0.213487719775D+00
    0.605918467045D-05 0.100550221978D-01 0.595487654209D-05 0.515362951851D+04
    0.345600000000D+06 0.875443220139D-07-0.163286460691D+01 0.132247805595D-06
    0.964518386988D+00 0.264437500000D+03-0.262081700608D+01-0.839106384376D-08
    0.957182735850D-10 0.100000000000D+01 0.191900000000D+04 0.000000000000D+00
    0.200000000000D+01 0.000000000000D+00-0.111758708954D-07 0.350000000000D+02
    0.345600000000D+06 0.000000000000D+00 0.000000000000D+00 0.000000000000D+00
 8 16 10 20  0  0  0.0-0.360137782991D-04-0.125055521494D-11 0.000000000000D+00
    0.900000000000D+02-0.860625000000D+02 0.419981779641D-08-0.248711186004D+01
   -0.449456274509D-05 0.185281271115D-02 0.100098550320D-04 0.515376895332D+04
    0.345600000000D+06 0.447034835815D-07 0.430339207550D+00 0.353902578354D-07
    0.964934819785D+00 0.188031250000D+03-0.101116734231D+01-0.789675750307D-08
   -0.353586156854D-10 0.100000000000D+01 0.191900000000D+04 0.000000000000D+00
    0.200000000000D+01 0.000000000000D+00 0.512227416039D-08 0.900000000000D+02
    0.344670000000D+06 0.400000000000D+01 0.000000000000D+00 0.000000000000D+00
 9 16 10 20  0  0  0.0 0.228332355618D-03 0.727595761418D-11 0.000000000000D+00
    0.390000000000D+02 0.346250000000D+02 0.469233851774D-08 0.310340027324D+01
    0.181235373020D-05 0.622788793407D-03 0.109747052193D-04 0.515376520538D+04
    0.345600000000D+06 0.115483999252D-06-0.271146486550D+01 0.298023223877D-07
    0.954776221553D+00 0.165718750000D+03 0.188582550498D+01-0.800461918971D-08
   -0.332513849788D-09 0.100000000000D+01 0.191900000000D+04 0.000000000000D+00
    0.200000000000D+01 0.000000000000D+00 0.139698386192D-08 0.390000000000D+02
    0.345600000000D+06 0.000000000000D+00 0.000000000000D+00 0.000000000000D+00
10 16 10 20  0  0  0.0-0.109039712697D-03-0.295585778076D-11 0.000000000000D+00
    0.890000000000D+02-0.126562500000D+02 0.493877714846D-08-0.121115904886D+01
   -0.709667801857D-06 0.181166897528D-02 0.626966357231D-05 0.515367147255D+04
    0.345600000000D+06 0.223517417908D-07 0.253010364305D+01 0.335276126862D-07
    0.959734393247D+00 0.256437500000D+03-0.290372765838D+01-0.824498629392D-08
   -0.578595529398D-10 0.100000000000D+01 0.191900000000D+04 0.000000000000D+00
    0.200000000000D+01 0.000000000000D+00 0.232830643654D-08 0.890000000000D+02
    0.344670000000D+06 0.400000000000D+01 0.000000000000D+00 0.000000000000D+00
11 16 10 20  0  0  0.0-0.667371321470D-03-0.102318153950D-11 0.000000000000D+00
    0.630000000000D+02-0.108750000000D+02 0.592060375977D-08 0.305420533283D+00
   -0.666826963425D-06 0.168155737920D-01 0.103265047073D-04 0.515368096542D+04
    0.345600000000D+06-0.292435288429D-06 0.110450489218D+01-0.175088644028D-06
    0.898070067240D+00 0.151343750000D+03 0.158834455581D+01-0.892322883116D-08
    0.374658463172D-09 0.100000000000D+01 0.191900000000D+04 0.000000000000D+00
    0.400000000000D+01 0.000000000000D+00-0.121071934700D-07 0.630000000000D+02
    0.344670000000D+06 0.400000000000D+01 0.000000000000D+00 0.000000000000D+00
12 16 10 20  0  0  0.0 0.389308668673D-03 0.113686837722D-12 0.000000000000D+00
    0.480000000000D+02-0.391250000000D+02 0.419731769227D-08-0.380259842457D+00
   -0.210292637348D-05 0.604378699791D-02 0.277720391750D-05 0.515364217186D+04
    0.345600000000D+06-0.298023223877D-07-0.553200629861D+00 0.124797224999D-06
    0.990134853514D+00 0.339968750000D+03 0.784127532733D+00-0.831534636755D-08
   -0.252867675811D-09 0.100000000000D+01 0.191900000000D+04 0.000000000000D+00
    0.200000000000D+01 0.000000000000D+00-0.125728547573D-07 0.480000000000D+02
    0.344670000000D+06 0.400000000000D+01 0.000000000000D+00 0.000000000000D+00
13 16 10 20  0  0  0.0-0.502937473357D-04-0.216004991671D-11 0.000000000000D+00
    0.700000000000D+02 0.498125000000D+02 0.425517724521D-08 0.121972485992D+01
    0.258907675743D-05 0.401808985043D-02 0.120848417282D-04 0.515369186974D+04
    0.345600000000D+06 0.186264514923D-08-0.258858608566D+01-0.158324837685D-06
    0.970985949279D+00 0.150906250000D+03 0.192729262160D+01-0.777818113532D-08
   -0.300726812193D-09 0.100000000000D+01 0.191900000000D+04 0.000000000000D+00
    0.200000000000D+01 0.000000000000D+00-0.111758708954D-07 0.700000000000D+02
    0.340620000000D+06 0.400000000000D+01 0.000000000000D+00 0.000000000000D+00
14 16 10 20  0  0  0.0-0.409474596381D-04-0.193267624127D-11 0.000000000000D+00
    0.690000000000D+02 0.345625000000D+02 0.432303721471D-08 0.256543423965D+01
    0.176765024662D-05 0.872128165793D-02 0.112522393465D-04 0.515359957314D+04
    0.345600000000D+06 0.298023223877D-07-0.262655935892D+01-0.987201929092D-07
    0.963504504299D+00 0.162218750000D+03-0.194530299521D+01-0.771460705863D-08
   -0.315727437029D-09 0.100000000000D+01 0.191900000000D+04 0.000000000000D+00
    0.200000000000D+01 0.000000000000D+00-0.931322574616D-08 0.690000000000D+02
    0.344670000000D+06 0.400000000000D+01 0.000000000000D+00 0.000000000000D+00
